POLYGON ((267.366633 255.076609, 250.612633 249.031351, 227.640653 239.53166, 203.977786 227.613866, 185.669291 217.423288, 175.824157 210.687144, 161.660981 199.287515, 134.445821 173.579637, 119.66247 155.79966, 110.206452 161.193586, 110.017207 161.461472, 117.962403 175.79737, 128.325702 191.51504, 137.307228 203.432834, 147.843249 216.55968, 157.34294 226.750257, 168.915291 238.668051, 195.514425 260.603701, 212.786591 272.694217, 226.431601 280.984857, 251.476241 293.593537, 260.467243 297.305951, 253.596639 311.865541, 248.080566 309.711335, 220.244453 294.990314, 194.817235 278.663363, 164.348727 254.183095, 152.258212 242.092579, 141.423853 230.630142, 129.804397 215.242213, 119.755137 202.05256, 111.747133 186.97867, 99.813637 164.524855, 92.904771 167.19419, 93.073557 167.350993, 100.918704 189.114949, 113.572167 219.483261, 119.898899 230.871377, 149.001864 270.350182, 162.161465 283.256714, 193.795123 307.298294, 202.399477 311.600471, 216.571356 318.93948, 212.522248 328.556112, 202.146408 324.000865, 170.76582 303.755324, 159.377703 295.404039, 141.662855 278.195329, 112.55989 239.475732, 106.486228 227.834546, 100.918704 217.205637, 94.591973 202.021482, 82.191579 170.893963, 74.852571 173.171586, 101.424843 245.043256, 120.658107 278.195329, 130.274738 290.848792, 152.038695 310.588194, 171.271959 325.013142, 182.407006 331.339873, 179.876313 336.654328, 172.031166 332.60522, 137.613747 305.526809, 117.239345 283.472673, 97.744369 247.370866, 55.144238 274.086203, 60.920527 331.127057, 105.686767 346.289816, 97.022333 369.394973, 106.885541 372.847095, 105.40606 379.25818, 124.146155 383.696624, 200.092856 407.368323, 198.292646 412.683227, 189.165214 409.568932, 189.056499 409.537975, 188.945182 409.518338, 188.832436 409.510229, 188.719454 409.513733, 188.607428 409.528813, 188.497541 409.555311, 188.390954 409.592945, 188.288791 409.64132, 188.192132 409.699923, 188.101998 409.768137, 180.051998 416.538137, 181.468002 418.221863, 189.042635 411.851643, 197.586869 414.766951, 189.736487 437.944267, 242.349047 454.431152, 242.267277 454.700978, 242.262483 454.717249, 240.424125 461.138677, 192.583223 445.931686, 192.47591 445.903448, 192.366298 445.886165, 192.255502 445.880014, 192.14465 445.885056, 192.03487 445.901242, 191.92728 445.928405, 191.822973 445.96627, 191.723013 446.014451, 191.628415 446.072458, 191.540143 446.139701, 191.459094 446.215495, 191.386094 446.299069, 191.321886 446.389572, 191.267123 446.486084, 191.222362 446.587623, 191.188059 446.693154, 188.838059 455.393154, 188.84326 455.394559, 188.033939 458.192211, 188.031691 458.201688, 188.030376 458.211339, 188.030277 458.213933, 184.287814 470.489212, 184.261226 470.59495, 184.245236 470.7028, 184.240001 470.811704, 184.245573 470.920591, 184.261898 471.028392, 184.288813 471.134047, 184.326056 471.236519, 184.373261 471.3348, 184.429963 471.427926, 184.495605 471.51498, 184.569543 471.595109, 184.65105 471.667525, 184.739326 471.731516, 184.833503 471.786453, 184.932656 471.831798, 185.035811 471.867104, 222.188359 482.557998, 216.240161 493.482525, 211.287878 502.085404, 203.349116 508.554383, 145.103487 534.424701, 145.996513 536.435299, 204.376513 510.505299, 204.463698 510.461856, 204.546699 510.410869, 204.624863 510.35274, 212.834863 503.66274, 212.909625 503.595925, 212.977992 503.52258, 213.039396 503.443314, 213.093327 503.358787, 218.153327 494.568787, 218.16608 494.546012, 224.77608 482.406012, 224.823511 482.307545, 224.860937 482.204857, 224.887987 482.098962, 224.904395 481.990906, 224.909999 481.881754, 224.904743 481.772585, 224.88868 481.664477, 224.861967 481.558496, 224.82487 481.455689, 224.777753 481.357071, 224.721082 481.263616, 224.655417 481.176246, 224.581406 481.095823, 224.499779 481.023142, 224.411342 480.95892, 224.316969 480.903792, 224.217591 480.858301, 224.114189 480.822896, 186.718063 470.06191, 190.136182 458.85048, 190.138822 458.845942, 190.14293 458.836932, 190.146127 458.827561, 190.966127 455.967561, 190.968384 455.957907, 190.969673 455.948078, 190.969983 455.938169, 190.969924 455.937294, 193.012204 448.376513, 240.836777 463.578314, 240.94308 463.60634, 241.051651 463.623615, 241.161403 463.629966, 241.271241 463.625331, 241.380068 463.609755, 241.486797 463.583394, 241.590361 463.546512, 241.689727 463.499476, 241.783902 463.442757, 241.871944 463.37692, 241.952976 463.302625, 242.026186 463.220612, 242.090845 463.131701, 242.146306 463.03678, 242.192016 462.936797, 242.227517 462.832751, 244.375182 455.330905, 244.448479 455.089039, 295.419245 471.061445, 295.252017 471.585736, 295.224324 471.689955, 295.206968 471.796385, 295.200116 471.904003, 295.203835 472.011774, 295.218088 472.118664, 295.242739 472.223645, 295.277551 472.325707, 295.322189 472.42387, 295.376224 472.517191, 295.439136 472.604773, 295.510322 472.685773, 295.589097 472.759415, 295.674704 472.824989, 295.766321 472.881866, 295.863066 472.929499, 295.96401 472.967431, 323.8339 481.907395, 347.633789 489.54736, 347.738202 489.5753, 347.844853 489.592858, 347.952713 489.599864, 348.06074 489.596251, 348.16789 489.582053, 348.27313 489.557408, 348.375443 489.522554, 348.473841 489.477826, 348.567375 489.423658, 348.655141 489.360571, 348.736291 489.289175, 348.810043 489.21016, 348.875685 489.124288, 348.932581 489.032388, 348.980184 488.935348, 349.018033 488.834105, 350.917437 482.875976, 355.786834 467.787845, 355.783074 467.786632, 355.95745 467.370067, 356.181597 467.071204, 356.448002 466.869104, 356.752535 466.761622, 357.570887 466.838643, 367.690242 469.836602, 367.694235 469.838913, 367.703234 469.842996, 368.121704 470.008438, 368.420126 470.222928, 368.619751 470.476996, 368.708404 470.769553, 368.683273 471.004106, 368.607578 471.109422, 368.343421 471.309817, 368.029274 471.408549, 367.209292 471.331374, 363.174889 470.126034, 362.545111 472.233966, 366.569943 473.436447, 366.572743 473.438129, 366.58156 473.442317, 366.590744 473.445625, 366.600207 473.448022, 367.640207 473.658022, 367.651677 473.659653, 367.663259 473.659947, 368.583259 473.629947, 368.592737 473.629186, 368.602099 473.627528, 368.611262 473.624988, 369.401262 473.364988, 369.411293 473.361076, 369.420845 473.356109, 369.429808 473.350143, 370.099808 472.850143, 370.107844 472.843465, 370.11514 472.835985, 370.121614 472.827785, 370.127198 472.818953, 370.437781 472.265728, 370.588978 472.315067, 370.59861 472.317686, 370.608456 472.319331, 370.618416 472.319987, 370.628392 472.319647, 370.638284 472.318314, 370.647995 472.316002, 370.657426 472.312732, 370.666484 472.308539, 370.67508 472.303464, 370.683126 472.297557, 370.690544 472.290877, 370.697258 472.283492, 370.703203 472.275473, 370.708319 472.266902, 370.712555 472.257863, 370.88798 471.829046, 371.112347 471.520541, 371.388248 471.309017, 371.693158 471.201402, 372.508264 471.267748, 372.506307 471.274323, 407.326307 481.634323, 407.953693 479.525677, 373.159913 469.173478, 373.156705 469.171577, 373.147811 469.167424, 373.138552 469.164163, 368.342457 467.735326, 368.342462 467.735312, 358.209853 464.733427, 358.207404 464.731949, 358.198604 464.727752, 358.189437 464.724431, 353.455189 463.266202, 353.456321 463.262676, 306.496321 448.182676, 306.496109 448.183337, 304.466675 447.523985, 306.12234 442.382711, 383.548522 467.040731, 382.069041 469.506533, 404.754419 477.890259, 411.134348 457.399915, 407.991626 455.98569, 411.605756 444.514755, 430.619224 451.428743, 430.304952 452.685832, 466.131983 464.313903, 467.703344 460.699773, 469.588977 461.64259, 472.687195 452.996805, 493.301299 451.911852, 491.67387 409.59869, 453.830858 411.242721, 453.820213 411.163589, 449.541334 379.246546, 558.743363 378.532569, 658.280852 377.805576, 658.644349 369.748068, 643.922736 369.748068, 611.510955 370.475061, 534.207342 372.110796, 479.319354 372.777206, 448.300976 372.898372, 417.403764 373.685948, 391.898418 373.140703, 367.483563 372.292544, 367.722318 368.327764, 390.740641 369.666038, 446.145211 369.398383, 487.36407 369.130728, 529.118238 368.060109, 605.399892 366.454179, 605.399892 354.945017, 514.397217 345.041785, 494.323098 343.971165, 442.933352 343.70351, 385.387543 342.365236, 358.62205 340.491651, 337.477311 338.618067, 306.696994 331.659039, 293.314248 327.37656, 257.725767 313.4781, 264.529063 298.983089, 278.248097 304.647723, 312.619706 316.91096, 325.746552 320.192672, 346.300429 324.337991, 365.645254 326.756095, 384.471914 328.483311, 450.96975 332.110466, 493.286555 335.046734, 533.876144 338.328445, 535.776082 324.16527, 527.830886 322.265332, 496.568267 315.183744, 445.960822 303.611393, 345.609542 277.012258, 292.756716 262.676361, 279.480785 258.702613, 284.021409 244.484672, 325.800667 256.464748, 408.322808 280.248422, 472.586776 296.464564, 524.838788 308.71676, 588.021679 323.851825, 590.804226 314.05973, 540.577126 300.261076, 431.96146 263.998555, 259.535283 211.473544, 231.580184 201.427181, 212.470253 194.220007, 191.17633 182.754048, 174.46879 172.598485, 150.881676 155.781745, 136.576527 144.315787, 130.461349 149.338969, 130.125893 149.558335, 159.435067 181.029661, 179.014557 197.606161, 203.03847 213.101585, 232.347644 226.074498, 240.876133 229.317726, 275.951047 242.17052, 279.799777 243.274132, 275.243858 257.434418, 267.366633 255.076609), (305.020004 450.191867, 305.848316 450.289315, 305.858138 450.289983, 305.862666 450.289844, 352.783006 465.357108, 353.190883 465.527847, 353.488497 465.741757, 353.679726 466.005836, 353.778133 466.310004, 353.680685 467.138316, 353.680017 467.148172, 353.680151 467.152484, 348.823166 482.202155, 348.821967 482.205895, 347.256744 487.115753, 324.506211 479.81264, 297.681697 471.208006, 302.007983 457.644264, 304.067124 451.186955, 304.237847 450.779117, 304.451757 450.481503, 304.715836 450.290274, 305.020004 450.191867))
